STARLINK-32363          
1 61678U 24193T   26068.44531128  .00000134  00000+0  16649-4 0  9994
2 61678  53.1608  91.8252 0001275  89.8834 270.2313 15.30190023 76493
HAWK-11A                
1 62382U 24247F   26068.51231358  .00009457  00000+0  34106-3 0  9991
2 62382  44.9941 114.3328 0005466 327.3713  32.6832 15.28849427 67741
